{
  "norad_id": 57460,
  "name": "STARLINK-30077",
  "history": [
    {
      "epoch": "2026-03-28T16:00:16.589952",
      "apogee_km": 483.9673950104434,
      "perigee_km": 482.1066446162713,
      "latitude_deg": 28.85977084859129,
      "longitude_deg": -9.981566719943658,
      "semi_major_axis_km": 6861.1740198133575,
      "eccentricity": 0.0001356,
      "inclination_deg": 43.0025,
      "raan_deg": 228.5653,
      "arg_perigee_deg": 261.89,
      "mean_anomaly_deg": 98.1798,
      "mean_motion_rev_day": 15.27584033
    }
  ]
}